{
  "type": "FeatureCollection",
  "features": [
    {
      "type": "Feature",
      "properties": {
        "norad_id": 40118,
        "name": "GAOFEN-2",
        "group": "resource",
        "lat": 37.73261302463382,
        "lon": -114.58762383904076,
        "alt_km": 622.0624214340669,
        "timestamp": "2025-12-25T22:42:16.653526+00:00",
        "meta_object_name": "GAOFEN-2",
        "meta_object_id": "2014-049A",
        "meta_epoch": "2025-12-25T18:49:25.011264",
        "meta_mean_motion": 14.80629234,
        "meta_eccentricity": 0.0008704,
        "meta_inclination": 98.0363,
        "meta_ra_of_asc_node": 58.9741,
        "meta_arg_of_pericenter": 76.8288,
        "meta_mean_anomaly": 283.3895,
        "meta_ephemeris_type": 0,
        "meta_classification_type": "U",
        "meta_norad_cat_id": 40118,
        "meta_element_set_no": 999,
        "meta_rev_at_epoch": 61357,
        "meta_bstar": 9.4954e-05,
        "meta_mean_motion_dot": 6.76e-06,
        "meta_mean_motion_ddot": 0,
        "tle_line1": "1 40118U 14049A   25359.78431726  .00000676  00000+0  94954-4 0  9997",
        "tle_line2": "2 40118  98.0363  58.9741 0008704  76.8288 283.3895 14.80629234613576"
      },
      "geometry": {
        "type": "Point",
        "coordinates": [
          -114.58762383904076,
          37.73261302463382
        ]
      }
    },
    {
      "type": "Feature",
      "properties": {
        "norad_id": 40143,
        "name": "YAOGAN-21",
        "group": "resource",
        "lat": -8.778786624216622,
        "lon": 43.79834658640533,
        "alt_km": 492.7538586673063,
        "timestamp": "2025-12-25T22:42:16.653536+00:00",
        "meta_object_name": "YAOGAN-21",
        "meta_object_id": "2014-053A",
        "meta_epoch": "2025-12-25T18:00:54.825120",
        "meta_mean_motion": 15.23800919,
        "meta_eccentricity": 0.0008492,
        "meta_inclination": 97.1734,
        "meta_ra_of_asc_node": 42.497,
        "meta_arg_of_pericenter": 358.5338,
        "meta_mean_anomaly": 1.5873,
        "meta_ephemeris_type": 0,
        "meta_classification_type": "U",
        "meta_norad_cat_id": 40143,
        "meta_element_set_no": 999,
        "meta_rev_at_epoch": 62852,
        "meta_bstar": 0.00016656,
        "meta_mean_motion_dot": 3.946e-05,
        "meta_mean_motion_ddot": 0,
        "tle_line1": "1 40143U 14053A   25359.75063455  .00003946  00000+0  16656-3 0  9992",
        "tle_line2": "2 40143  97.1734  42.4970 0008492 358.5338   1.5873 15.23800919628524"
      },
      "geometry": {
        "type": "Point",
        "coordinates": [
          43.79834658640533,
          -8.778786624216622
        ]
      }
    },
    {
      "type": "Feature",
      "properties": {
        "norad_id": 40275,
        "name": "YAOGAN-22",
        "group": "resource",
        "lat": 23.43001112585618,
        "lon": 138.8332108494523,
        "alt_km": 1205.6418897351768,
        "timestamp": "2025-12-25T22:42:16.653546+00:00",
        "meta_object_name": "YAOGAN-22",
        "meta_object_id": "2014-063A",
        "meta_epoch": "2025-12-25T15:16:57.245952",
        "meta_mean_motion": 13.15523272,
        "meta_eccentricity": 0.0006094,
        "meta_inclination": 100.743,
        "meta_ra_of_asc_node": 143.2387,
        "meta_arg_of_pericenter": 217.4039,
        "meta_mean_anomaly": 142.6648,
        "meta_ephemeris_type": 0,
        "meta_classification_type": "U",
        "meta_norad_cat_id": 40275,
        "meta_element_set_no": 999,
        "meta_rev_at_epoch": 53699,
        "meta_bstar": 5.775e-05,
        "meta_mean_motion_dot": -2.5e-07,
        "meta_mean_motion_ddot": 0,
        "tle_line1": "1 40275U 14063A   25359.63677368 -.00000025  00000+0  57750-4 0  9997",
        "tle_line2": "2 40275 100.7430 143.2387 0006094 217.4039 142.6648 13.15523272536992"
      },
      "geometry": {
        "type": "Point",
        "coordinates": [
          138.8332108494523,
          23.43001112585618
        ]
      }
    },
    {
      "type": "Feature",
      "properties": {
        "norad_id": 40298,
        "name": "ASNARO",
        "group": "resource",
        "lat": -24.02984589230775,
        "lon": -107.73523780240087,
        "alt_km": 513.9825884257443,
        "timestamp": "2025-12-25T22:42:16.653556+00:00",
        "meta_object_name": "ASNARO",
        "meta_object_id": "2014-070A",
        "meta_epoch": "2025-12-25T18:38:57.483744",
        "meta_mean_motion": 15.19761106,
        "meta_eccentricity": 0.0005689,
        "meta_inclination": 97.3631,
        "meta_ra_of_asc_node": 75.4051,
        "meta_arg_of_pericenter": 86.9308,
        "meta_mean_anomaly": 273.2578,
        "meta_ephemeris_type": 0,
        "meta_classification_type": "U",
        "meta_norad_cat_id": 40298,
        "meta_element_set_no": 999,
        "meta_rev_at_epoch": 61767,
        "meta_bstar": 0.00058195,
        "meta_mean_motion_dot": 0.00012397,
        "meta_mean_motion_ddot": 0,
        "tle_line1": "1 40298U 14070A   25359.77705421  .00012397  00000+0  58195-3 0  9994",
        "tle_line2": "2 40298  97.3631  75.4051 0005689  86.9308 273.2578 15.19761106617676"
      },
      "geometry": {
        "type": "Point",
        "coordinates": [
          -107.73523780240087,
          -24.02984589230775
        ]
      }
    },
    {
      "type": "Feature",
      "properties": {
        "norad_id": 40310,
        "name": "YAOGAN-24",
        "group": "resource",
        "lat": -80.38005010183436,
        "lon": -171.46428617353513,
        "alt_km": 659.3381675263081,
        "timestamp": "2025-12-25T22:42:16.653566+00:00",
        "meta_object_name": "YAOGAN-24",
        "meta_object_id": "2014-072A",
        "meta_epoch": "2025-12-25T18:12:32.383296",
        "meta_mean_motion": 14.76205134,
        "meta_eccentricity": 0.001522,
        "meta_inclination": 98.1233,
        "meta_ra_of_asc_node": 130.9224,
        "meta_arg_of_pericenter": 99.1573,
        "meta_mean_anomaly": 261.1359,
        "meta_ephemeris_type": 0,
        "meta_classification_type": "U",
        "meta_norad_cat_id": 40310,
        "meta_element_set_no": 999,
        "meta_rev_at_epoch": 59813,
        "meta_bstar": 0.00022987,
        "meta_mean_motion_dot": 1.54e-05,
        "meta_mean_motion_ddot": 0,
        "tle_line1": "1 40310U 14072A   25359.75870814  .00001540  00000+0  22987-3 0  9996",
        "tle_line2": "2 40310  98.1233 130.9224 0015220  99.1573 261.1359 14.76205134598137"
      },
      "geometry": {
        "type": "Point",
        "coordinates": [
          -171.46428617353513,
          -80.38005010183436
        ]
      }
    },
    {
      "type": "Feature",
      "properties": {
        "norad_id": 40336,
        "name": "CBERS 4",
        "group": "resource",
        "lat": -63.78569446460413,
        "lon": -139.79896058439542,
        "alt_km": 781.6546674841802,
        "timestamp": "2025-12-25T22:42:16.653576+00:00",
        "meta_object_name": "CBERS 4",
        "meta_object_id": "2014-079A",
        "meta_epoch": "2025-12-25T18:13:16.335840",
        "meta_mean_motion": 14.35522971,
        "meta_eccentricity": 0.0001876,
        "meta_inclination": 98.3286,
        "meta_ra_of_asc_node": 57.3292,
        "meta_arg_of_pericenter": 97.5523,
        "meta_mean_anomaly": 262.5877,
        "meta_ephemeris_type": 0,
        "meta_classification_type": "U",
        "meta_norad_cat_id": 40336,
        "meta_element_set_no": 999,
        "meta_rev_at_epoch": 57907,
        "meta_bstar": 9.7366e-05,
        "meta_mean_motion_dot": 2.38e-06,
        "meta_mean_motion_ddot": 0,
        "tle_line1": "1 40336U 14079A   25359.75921685  .00000238  00000+0  97366-4 0  9991",
        "tle_line2": "2 40336  98.3286  57.3292 0001876  97.5523 262.5877 14.35522971579079"
      },
      "geometry": {
        "type": "Point",
        "coordinates": [
          -139.79896058439542,
          -63.78569446460413
        ]
      }
    },
    {
      "type": "Feature",
      "properties": {
        "norad_id": 40362,
        "name": "YAOGAN-26",
        "group": "resource",
        "lat": 81.17052450626213,
        "lon": -126.86968951161765,
        "alt_km": 440.2806975843823,
        "timestamp": "2025-12-25T22:42:16.653586+00:00",
        "meta_object_name": "YAOGAN-26",
        "meta_object_id": "2014-088A",
        "meta_epoch": "2025-12-25T17:36:47.933568",
        "meta_mean_motion": 15.39746527,
        "meta_eccentricity": 0.0004241,
        "meta_inclination": 97.0648,
        "meta_ra_of_asc_node": 359.9472,
        "meta_arg_of_pericenter": 348.9614,
        "meta_mean_anomaly": 11.1538,
        "meta_ephemeris_type": 0,
        "meta_classification_type": "U",
        "meta_norad_cat_id": 40362,
        "meta_element_set_no": 999,
        "meta_rev_at_epoch": 61094,
        "meta_bstar": 0.00034597,
        "meta_mean_motion_dot": 0.00013622,
        "meta_mean_motion_ddot": 0,
        "tle_line1": "1 40362U 14088A   25359.73388812  .00013622  00000+0  34597-3 0  9994",
        "tle_line2": "2 40362  97.0648 359.9472 0004241 348.9614  11.1538 15.39746527610944"
      },
      "geometry": {
        "type": "Point",
        "coordinates": [
          -126.86968951161765,
          81.17052450626213
        ]
      }
    }
  ]
}